[{"OBJECT_NAME":"BRO-14","OBJECT_ID":"2024-149CM","EPOCH":"2026-03-09T19:21:31.034016","MEAN_MOTION":14.95926897,"ECCENTRICITY":0.000793,"INCLINATION":97.6931,"RA_OF_ASC_NODE":146.3614,"ARG_OF_PERICENTER":74.9836,"MEAN_ANOMALY":285.2263,"EPHEMERIS_TYPE":0,"CLASSIFICATION_TYPE":"U","NORAD_CAT_ID":60551,"ELEMENT_SET_NO":999,"REV_AT_EPOCH":8513,"BSTAR":0.00014547278,"MEAN_MOTION_DOT":1.572e-5,"MEAN_MOTION_DDOT":0},{"OBJECT_NAME":"STARLINK-34368","OBJECT_ID":"2025-123W","EPOCH":"2026-03-09T17:48:30.209184","MEAN_MOTION":14.98333722,"ECCENTRICITY":0.00035386,"INCLINATION":70.0018,"RA_OF_ASC_NODE":194.4244,"ARG_OF_PERICENTER":273.8468,"MEAN_ANOMALY":86.2287,"EPHEMERIS_TYPE":0,"CLASSIFICATION_TYPE":"U","NORAD_CAT_ID":64311,"ELEMENT_SET_NO":999,"REV_AT_EPOCH":4162,"BSTAR":0.00080124843,"MEAN_MOTION_DOT":9.482e-5,"MEAN_MOTION_DDOT":0}]
