BRO-14                  
1 60551U 24149CM  26068.80660918  .00001572  00000+0  14547-3 0  9995
2 60551  97.6931 146.3614 0007930  74.9836 285.2263 14.95926897 85130
STARLINK-34368          
1 64311U 25123W   26068.74201631  .00009482  00000+0  80125-3 0  9995
2 64311  70.0018 194.4244 0003539 273.8468  86.2287 14.98333722 41627
